start=new Date('2022-12-26T00:00:00.000Z').valueOf();
sats=[{"OBJECT_NAME":"STARLINK-4407","TIME_SYSTEM":"UTC","APOAPSIS":"564.219","BSTAR":"0.00019937000000","TLE_LINE1":"1 53196U 22084H   22359.89147005  .00002502  00000-0  19937-3 0  9996","ARG_OF_PERICENTER":"70.2870","MEAN_ANOMALY":"289.8537","EPHEMERIS_TYPE":"0","NORAD_CAT_ID":"53196","TLE_LINE2":"2 53196  97.6560  58.4214 0001691  70.2870 289.8537 15.01249259 24460","REV_AT_EPOCH":"2446","ELEMENT_SET_NO":"999","DECAY_DATE":null,"SITE":"AFWTR","PERIOD":"95.920","OBJECT_ID":"2022-084H","EPOCH":"2022-12-25T21:23:43.012320","FILE":"3722315","LAUNCH_DATE":"2022-07-22","SEMIMAJOR_AXIS":"6941.180","CENTER_NAME":"EARTH","OBJECT_TYPE":"PAYLOAD","GP_ID":"221455091","COUNTRY_CODE":"US","RA_OF_ASC_NODE":"58.4214","REF_FRAME":"TEME","MEAN_ELEMENT_THEORY":"SGP4","ECCENTRICITY":"0.00016910","MEAN_MOTION_DDOT":"0.0000000000000","CLASSIFICATION_TYPE":"U","MEAN_MOTION_DOT":"0.00002502","PERIAPSIS":"561.871","RCS_SIZE":"MEDIUM","INCLINATION":"97.6560","MEAN_MOTION":"15.01249259"},{"INCLINATION":"97.6557","RCS_SIZE":"LARGE","PERIAPSIS":"562.030","MEAN_MOTION_DOT":"-0.00000436","CLASSIFICATION_TYPE":"U","MEAN_MOTION":"15.01265820","RA_OF_ASC_NODE":"58.4140","COUNTRY_CODE":"US","GP_ID":"221454885","ECCENTRICITY":"0.00013880","MEAN_MOTION_DDOT":"0.0000000000000","MEAN_ELEMENT_THEORY":"SGP4","REF_FRAME":"TEME","EPOCH":"2022-12-25T21:15:20.923776","SITE":"AFWTR","DECAY_DATE":null,"PERIOD":"95.919","OBJECT_ID":"2022-084J","ELEMENT_SET_NO":"999","REV_AT_EPOCH":"2380","TLE_LINE2":"2 53197  97.6557  58.4140 0001388 100.4182 259.7199 15.01265820 23809","NORAD_CAT_ID":"53197","OBJECT_TYPE":"PAYLOAD","CENTER_NAME":"EARTH","SEMIMAJOR_AXIS":"6941.129","LAUNCH_DATE":"2022-07-22","FILE":"3722315","ARG_OF_PERICENTER":"100.4182","TLE_LINE1":"1 53197U 22084J   22359.88565884 -.00000436  00000-0 -29321-4 0  9990","APOAPSIS":"563.957","TIME_SYSTEM":"UTC","BSTAR":"-0.00002932100000","OBJECT_NAME":"STARLINK-4403","EPHEMERIS_TYPE":"0","MEAN_ANOMALY":"259.7199"},{"INCLINATION":"97.6578","RCS_SIZE":"LARGE","PERIAPSIS":"561.958","MEAN_MOTION_DOT":"-0.00000357","CLASSIFICATION_TYPE":"U","MEAN_MOTION":"15.01264570","RA_OF_ASC_NODE":"58.4191","COUNTRY_CODE":"US","GP_ID":"221454265","ECCENTRICITY":"0.00014980","MEAN_MOTION_DDOT":"0.0000000000000","MEAN_ELEMENT_THEORY":"SGP4","REF_FRAME":"TEME","EPOCH":"2022-12-25T21:20:41.625888","PERIOD":"95.919","DECAY_DATE":null,"SITE":"AFWTR","OBJECT_ID":"2022-084K","ELEMENT_SET_NO":"999","REV_AT_EPOCH":"2446","TLE_LINE2":"2 53198  97.6578  58.4191 0001498 101.2959 258.8434 15.01264570 24468","NORAD_CAT_ID":"53198","OBJECT_TYPE":"PAYLOAD","CENTER_NAME":"EARTH","SEMIMAJOR_AXIS":"6941.133","LAUNCH_DATE":"2022-07-22","FILE":"3722315","ARG_OF_PERICENTER":"101.2959","TLE_LINE1":"1 53198U 22084K   22359.88937067 -.00000357  00000-0 -23222-4 0  9993","APOAPSIS":"564.038","BSTAR":"-0.00002322200000","TIME_SYSTEM":"UTC","OBJECT_NAME":"STARLINK-4385","EPHEMERIS_TYPE":"0","MEAN_ANOMALY":"258.8434"},{"REV_AT_EPOCH":"2380","NORAD_CAT_ID":"53199","TLE_LINE2":"2 53199  97.6551  58.4122 0001721 120.0725 240.0670 15.01264314 23801","EPOCH":"2022-12-25T21:12:41.233248","ELEMENT_SET_NO":"999","SITE":"AFWTR","DECAY_DATE":null,"PERIOD":"95.919","OBJECT_ID":"2022-084L","LAUNCH_DATE":"2022-07-22","SEMIMAJOR_AXIS":"6941.134","FILE":"3722315","OBJECT_TYPE":"PAYLOAD","CENTER_NAME":"EARTH","APOAPSIS":"564.193","BSTAR":"-0.00005218300000","TIME_SYSTEM":"UTC","TLE_LINE1":"1 53199U 22084L   22359.88381057 -.00000729  00000-0 -52183-4 0  9997","OBJECT_NAME":"STARLINK-4395","ARG_OF_PERICENTER":"120.0725","EPHEMERIS_TYPE":"0","MEAN_ANOMALY":"240.0670","CLASSIFICATION_TYPE":"U","PERIAPSIS":"561.804","INCLINATION":"97.6551","RCS_SIZE":"LARGE","MEAN_MOTION_DOT":"-0.00000729","MEAN_MOTION":"15.01264314","GP_ID":"221454472","RA_OF_ASC_NODE":"58.4122","COUNTRY_CODE":"US","REF_FRAME":"TEME","MEAN_MOTION_DDOT":"0.0000000000000","ECCENTRICITY":"0.00017210","MEAN_ELEMENT_THEORY":"SGP4"},{"CLASSIFICATION_TYPE":"U","MEAN_MOTION_DOT":"-0.00000463","INCLINATION":"97.6566","RCS_SIZE":"LARGE","PERIAPSIS":"562.113","MEAN_MOTION":"15.01267128","GP_ID":"221454679","COUNTRY_CODE":"US","RA_OF_ASC_NODE":"58.4166","REF_FRAME":"TEME","MEAN_ELEMENT_THEORY":"SGP4","ECCENTRICITY":"0.00012640","MEAN_MOTION_DDOT":"0.0000000000000","TLE_LINE2":"2 53200  97.6566  58.4166 0001264  97.9385 262.1982 15.01267128 24464","NORAD_CAT_ID":"53200","REV_AT_EPOCH":"2446","DECAY_DATE":null,"OBJECT_ID":"2022-084M","SITE":"AFWTR","PERIOD":"95.919","ELEMENT_SET_NO":"999","EPOCH":"2022-12-25T21:18:00.805248","FILE":"3722315","LAUNCH_DATE":"2022-07-22","SEMIMAJOR_AXIS":"6941.125","CENTER_NAME":"EARTH","OBJECT_TYPE":"PAYLOAD","OBJECT_NAME":"STARLINK-4417","TLE_LINE1":"1 53200U 22084M   22359.88750932 -.00000463  00000-0 -31435-4 0  9994","APOAPSIS":"563.867","TIME_SYSTEM":"UTC","BSTAR":"-0.00003143500000","ARG_OF_PERICENTER":"97.9385","MEAN_ANOMALY":"262.1982","EPHEMERIS_TYPE":"0"},{"MEAN_MOTION_DOT":"-0.00001041","PERIAPSIS":"561.994","RCS_SIZE":"LARGE","INCLINATION":"97.6562","CLASSIFICATION_TYPE":"U","MEAN_MOTION":"15.01251441","COUNTRY_CODE":"US","RA_OF_ASC_NODE":"58.4076","GP_ID":"221455298","MEAN_ELEMENT_THEORY":"SGP4","MEAN_MOTION_DDOT":"0.0000000000000","ECCENTRICITY":"0.00015050","REF_FRAME":"TEME","ELEMENT_SET_NO":"999","OBJECT_ID":"2022-084N","DECAY_DATE":null,"SITE":"AFWTR","PERIOD":"95.920","EPOCH":"2022-12-25T21:07:22.055232","NORAD_CAT_ID":"53201","TLE_LINE2":"2 53201  97.6562  58.4076 0001505 111.3469 248.7916 15.01251441 23808","REV_AT_EPOCH":"2380","CENTER_NAME":"EARTH","OBJECT_TYPE":"PAYLOAD","FILE":"3722315","SEMIMAJOR_AXIS":"6941.173","LAUNCH_DATE":"2022-07-22","ARG_OF_PERICENTER":"111.3469","OBJECT_NAME":"STARLINK-4405","APOAPSIS":"564.083","TIME_SYSTEM":"UTC","BSTAR":"-0.00007644500000","TLE_LINE1":"1 53201U 22084N   22359.88011638 -.00001041  00000-0 -76445-4 0  9991","MEAN_ANOMALY":"248.7916","EPHEMERIS_TYPE":"0"},{"GP_ID":"221453852","COUNTRY_CODE":"US","RA_OF_ASC_NODE":"58.7114","REF_FRAME":"TEME","MEAN_ELEMENT_THEORY":"SGP4","ECCENTRICITY":"0.00028360","MEAN_MOTION_DDOT":"0.0000000000000","CLASSIFICATION_TYPE":"U","MEAN_MOTION_DOT":"-0.00000240","INCLINATION":"97.6563","RCS_SIZE":"LARGE","PERIAPSIS":"563.529","MEAN_MOTION":"15.00453754","OBJECT_NAME":"STARLINK-4411","TLE_LINE1":"1 53202U 22084P   22359.89013156 -.00000240  00000-0 -14389-4 0  9999","BSTAR":"-0.00001438900000","APOAPSIS":"567.467","TIME_SYSTEM":"UTC","ARG_OF_PERICENTER":"141.6866","MEAN_ANOMALY":"218.4559","EPHEMERIS_TYPE":"0","TLE_LINE2":"2 53202  97.6563  58.7114 0002836 141.6866 218.4559 15.00453754 23820","NORAD_CAT_ID":"53202","REV_AT_EPOCH":"2382","DECAY_DATE":null,"SITE":"AFWTR","PERIOD":"95.971","OBJECT_ID":"2022-084P","ELEMENT_SET_NO":"999","EPOCH":"2022-12-25T21:21:47.366784","FILE":"3722315","LAUNCH_DATE":"2022-07-22","SEMIMAJOR_AXIS":"6943.633","CENTER_NAME":"EARTH","OBJECT_TYPE":"PAYLOAD"},{"NORAD_CAT_ID":"53203","TLE_LINE2":"2 53203  97.6559  58.1397 0001774 128.6250 231.5134 15.01258371 23762","REV_AT_EPOCH":"2376","ELEMENT_SET_NO":"999","DECAY_DATE":null,"PERIOD":"95.920","SITE":"AFWTR","OBJECT_ID":"2022-084Q","EPOCH":"2022-12-25T14:38:06.073728","FILE":"3722315","LAUNCH_DATE":"2022-07-22","SEMIMAJOR_AXIS":"6941.152","CENTER_NAME":"EARTH","OBJECT_TYPE":"PAYLOAD","OBJECT_NAME":"STARLINK-4409","BSTAR":"-0.00000509670000","APOAPSIS":"564.248","TIME_SYSTEM":"UTC","TLE_LINE1":"1 53203U 22084Q   22359.60979252 -.00000124  00000-0 -50967-5 0  9991","ARG_OF_PERICENTER":"128.6250","MEAN_ANOMALY":"231.5134","EPHEMERIS_TYPE":"0","CLASSIFICATION_TYPE":"U","MEAN_MOTION_DOT":"-0.00000124","PERIAPSIS":"561.786","RCS_SIZE":"LARGE","INCLINATION":"97.6559","MEAN_MOTION":"15.01258371","GP_ID":"221454059","COUNTRY_CODE":"US","RA_OF_ASC_NODE":"58.1397","REF_FRAME":"TEME","MEAN_ELEMENT_THEORY":"SGP4","ECCENTRICITY":"0.00017740","MEAN_MOTION_DDOT":"0.0000000000000"},{"OBJECT_TYPE":"PAYLOAD","CENTER_NAME":"EARTH","SEMIMAJOR_AXIS":"6941.185","LAUNCH_DATE":"2022-07-22","FILE":"3722315","EPOCH":"2022-12-25T21:10:01.865856","ELEMENT_SET_NO":"999","OBJECT_ID":"2022-084R","DECAY_DATE":null,"SITE":"AFWTR","PERIOD":"95.920","REV_AT_EPOCH":"2446","NORAD_CAT_ID":"53204","TLE_LINE2":"2 53204  97.6544  58.4089 0001389 118.4208 241.7156 15.01247762 24467","EPHEMERIS_TYPE":"0","MEAN_ANOMALY":"241.7156","ARG_OF_PERICENTER":"118.4208","APOAPSIS":"564.014","TIME_SYSTEM":"UTC","BSTAR":"-0.00013521000000","TLE_LINE1":"1 53204U 22084R   22359.88196604 -.00001795  00000-0 -13521-3 0  9992","OBJECT_NAME":"STARLINK-4410","MEAN_MOTION":"15.01247762","PERIAPSIS":"562.085","INCLINATION":"97.6544","RCS_SIZE":"LARGE","MEAN_MOTION_DOT":"-0.00001795","CLASSIFICATION_TYPE":"U","MEAN_MOTION_DDOT":"0.0000000000000","ECCENTRICITY":"0.00013890","MEAN_ELEMENT_THEORY":"SGP4","REF_FRAME":"TEME","RA_OF_ASC_NODE":"58.4089","COUNTRY_CODE":"US","GP_ID":"221455092"},{"OBJECT_NAME":"STARLINK-4397","APOAPSIS":"564.026","TIME_SYSTEM":"UTC","BSTAR":"0.00013004000000","TLE_LINE1":"1 53205U 22084S   22359.73939662  .00001612  00000-0  13004-3 0  9998","ARG_OF_PERICENTER":"104.8697","MEAN_ANOMALY":"255.2692","EPHEMERIS_TYPE":"0","NORAD_CAT_ID":"53205","TLE_LINE2":"2 53205  97.6555  58.2676 0001485 104.8697 255.2692 15.01265467 23789","REV_AT_EPOCH":"2378","ELEMENT_SET_NO":"999","PERIOD":"95.919","DECAY_DATE":null,"SITE":"AFWTR","OBJECT_ID":"2022-084S","EPOCH":"2022-12-25T17:44:43.867968","FILE":"3722315","SEMIMAJOR_AXIS":"6941.130","LAUNCH_DATE":"2022-07-22","CENTER_NAME":"EARTH","OBJECT_TYPE":"PAYLOAD","GP_ID":"221454886","COUNTRY_CODE":"US","RA_OF_ASC_NODE":"58.2676","REF_FRAME":"TEME","MEAN_ELEMENT_THEORY":"SGP4","ECCENTRICITY":"0.00014850","MEAN_MOTION_DDOT":"0.0000000000000","CLASSIFICATION_TYPE":"U","MEAN_MOTION_DOT":"0.00001612","PERIAPSIS":"561.964","INCLINATION":"97.6555","RCS_SIZE":"LARGE","MEAN_MOTION":"15.01265467"}];
